NORAD_CAT_ID,OBJECT_NAME,OBJECT_TYPE,EPOCH,MEAN_MOTION,ECCENTRICITY,INCLINATION,RA_OF_ASC_NODE,ARG_OF_PERICENTER,MEAN_ANOMALY,BSTAR,MEAN_MOTION_DOT,MEAN_MOTION_DDOT,TLE_LINE0,TLE_LINE1,TLE_LINE2,SEMIMAJOR_AXIS,PERIOD,APOGEE,PERIGEE,DECAYED
50188.0,STARLINK-3275,PAYLOAD,2022-04-10 06:00:02,15.12556718,0.0001691,53.2175,176.1613,45.8948,256.5744,-0.043964,-0.00721963,0.0,0 STARLINK-3275,1 50188U 21125AJ  22100.25002315 -.00721963  00000-0 -43964-1 0  9993,2 50188  53.2175 176.1613 0001691  45.8948 256.5744 15.12556718 17841,6906.543000000002,95.203,529.576,527.24,0.0
50188.0,STARLINK-3275,PAYLOAD,2022-04-10 14:00:01,15.12046138,0.000181,53.2175,174.6567,40.4577,277.6997,-0.04457,-0.00721554,0.0,0 STARLINK-3275,1 50188U 21125AJ  22100.58334491 -.00721554  00000-0 -44570-1 0  9992,2 50188  53.2175 174.6567 0001810  40.4577 277.6997 15.12046138  3641,6908.098000000001,95.235,531.2130000000002,528.712,0.0
50188.0,STARLINK-3275,PAYLOAD,2022-04-10 22:00:00,15.11537852,0.0001516,53.2174,173.1499,50.4678,282.8293,-0.045443,-0.00725017,0.0,0 STARLINK-3275,1 50188U 21125AJ  22100.91667824 -.00725017  00000-0 -45443-1 0  9996,2 50188  53.2174 173.1499 0001516  50.4678 282.8293 15.11537852  3648,6909.646,95.267,532.559,530.464,0.0
50188.0,STARLINK-3275,PAYLOAD,2022-04-11 14:00:01,15.10516002,0.0001828,53.2175,170.1444,37.6515,324.0852,-0.046506,-0.00721454,0.0,0 STARLINK-3275,1 50188U 21125AJ  22101.58334491 -.00721454  00000-0 -46506-1 0  9993,2 50188  53.2175 170.1444 0001828  37.6515 324.0852 15.10516002 18042,6912.762,95.332,535.891,533.364,0.0
50188.0,STARLINK-3275,PAYLOAD,2022-04-11 22:00:00,15.10007228,0.0001689,53.2175,168.6411,40.0362,335.0019,-0.047341,-0.0072391999999999,0.0,0 STARLINK-3275,1 50188U 21125AJ  22101.91667824 -.00723920  00000-0 -47341-1 0  9997,2 50188  53.2175 168.6411 0001689  40.0362 335.0019 15.10007228  3621,6914.315,95.364,537.3480000000002,535.012,0.0
50188.0,STARLINK-3275,PAYLOAD,2022-04-12 14:00:01,15.088656900000002,0.0001891,53.2175,165.6446,38.9392,0.8737,-0.0029461,-0.00046904,0.0,0 STARLINK-3275,1 50188U 21125AJ  22102.58334491 -.00046904  00000-0 -29461-2 0  9996,2 50188  53.2175 165.6446 0001891  38.9392   0.8737 15.08865690 18206,6917.802,95.436,540.975,538.359,0.0
50188.0,STARLINK-3275,PAYLOAD,2022-04-12 22:00:00,15.08851399,0.0001447,53.2103,164.1552,23.5603,27.9062,0.0003256,4.899e-05,0.0,0 STARLINK-3275,1 50188U 21125AJ  22102.91667824  .00004899  00000-0  32560-3 0  9992,2 50188  53.2103 164.1552 0001447  23.5603  27.9062 15.08851399 18258,6917.846,95.437,540.712,538.71,0.0
50188.0,STARLINK-3275,PAYLOAD,2022-04-13 14:00:03,15.08819405,0.0001737,53.2119,161.1637,26.3218,48.5168,0.003269,0.00052094,0.0,0 STARLINK-3275,1 50188U 21125AJ  22103.58336806  .00052094  00000-0  32690-2 0  9992,2 50188  53.2119 161.1637 0001737  26.3218  48.5168 15.08819405  3657,6917.943,95.439,541.01,538.607,0.0
50188.0,STARLINK-3275,PAYLOAD,2022-04-13 22:00:00,15.08855621,0.0001584,53.212,159.6655,29.635,56.6769,-0.00050785,-8.365e-05,0.0,0 STARLINK-3275,1 50188U 21125AJ  22103.91667824 -.00008365  00000-0 -50785-3 0  9996,2 50188  53.2120 159.6655 0001584  29.6350  56.6769 15.08855621  3640,6917.833000000001,95.437,540.793,538.602,0.0
50188.0,STARLINK-3275,PAYLOAD,2022-04-14 08:00:01,15.08840888,0.0001728,53.212,157.7956,33.2688,157.5438,-0.0012687999999999,-0.00020425,0.0,0 STARLINK-3275,1 50188U 21125AJ  22104.33334491 -.00020425  00000-0 -12688-2 0  9994,2 50188  53.2120 157.7956 0001728  33.2688 157.5438 15.08840888 18467,6917.878000000002,95.437,540.938,538.547,0.0
50188.0,STARLINK-3275,PAYLOAD,2022-04-14 14:00:01,15.08819755,0.000188,53.2119,156.6741,31.3077,78.1981,0.00075245,0.00011701,0.0,0 STARLINK-3275,1 50188U 21125AJ  22104.58334491  .00011701  00000-0  75245-3 0  9995,2 50188  53.2119 156.6741 0001880  31.3077  78.1981 15.08819755  3638,6917.941999999999,95.439,541.1080000000002,538.507,0.0
50188.0,STARLINK-3275,PAYLOAD,2022-04-14 22:00:00,15.08805646,0.0001716,53.2118,155.1759,36.7793,84.311,0.0007294,0.00011329,0.0,0 STARLINK-3275,1 50188U 21125AJ  22104.91667824  .00011329  00000-0  72940-3 0  9996,2 50188  53.2118 155.1759 0001716  36.7793  84.3110 15.08805646  3640,6917.985,95.44,541.038,538.663,0.0
50188.0,STARLINK-3275,PAYLOAD,2022-04-15 06:00:00,15.08841672,0.0001764999999999,53.2119,153.6797,38.864,93.7903,-0.00093631,-0.00015159,0.0,0 STARLINK-3275,1 50188U 21125AJ  22105.25001157 -.00015159  00000-0 -93631-3 0  9992,2 50188  53.2119 153.6797 0001765  38.8640  93.7903 15.08841672 18609,6917.875,95.437,540.961,538.519,0.0
50188.0,STARLINK-3275,PAYLOAD,2022-04-15 14:00:01,15.08814445,0.000195,53.2125,152.1845,34.2025,110.0503,0.0036813,0.00058748,0.0,0 STARLINK-3275,1 50188U 21125AJ  22105.58334491  .00058748  00000-0  36813-2 0  9995,2 50188  53.2125 152.1845 0001950  34.2025 110.0503 15.08814445  3631,6917.959,95.439,541.173,538.474,0.0
50188.0,STARLINK-3275,PAYLOAD,2022-04-15 22:00:00,15.08830915,0.000174,53.2133,150.6862,38.3038,117.5409,0.0019157,0.00030325,0.0,0 STARLINK-3275,1 50188U 21125AJ  22105.91667824  .00030325  00000-0  19157-2 0  9994,2 50188  53.2133 150.6862 0001740  38.3038 117.5409 15.08830915 18709,6917.908,95.438,540.977,538.569,0.0
50188.0,STARLINK-3275,PAYLOAD,2022-04-16 14:00:01,15.08806102,0.0002024,53.2129,147.6949,38.0404,141.0016,0.002956,0.00047028,0.0,0 STARLINK-3275,1 50188U 21125AJ  22106.58334491  .00047028  00000-0  29560-2 0  9996,2 50188  53.2129 147.6949 0002024  38.0404 141.0016 15.08806102 18804,6917.984,95.44,541.249,538.4490000000002,0.0
50188.0,STARLINK-3275,PAYLOAD,2022-04-16 22:00:01,15.08813521,0.000183,53.2126,146.1966,42.3688,148.3149,0.0019238,0.0003044,0.0,0 STARLINK-3275,1 50188U 21125AJ  22106.91668981  .00030440  00000-0  19238-2 0  9998,2 50188  53.2126 146.1966 0001830  42.3688 148.3149 15.08813521  3624,6917.9609999999975,95.439,541.092,538.56,0.0
50188.0,STARLINK-3275,PAYLOAD,2022-04-17 06:00:00,15.08848948,0.0001915,53.2127,144.7009,43.7566,158.4352,-0.0015654,-0.00025122,0.0,0 STARLINK-3275,1 50188U 21125AJ  22107.25001157 -.00025122  00000-0 -15654-2 0  9993,2 50188  53.2127 144.7009 0001915  43.7566 158.4352 15.08848948 18907,6917.853,95.437,541.043,538.393,0.0
50188.0,STARLINK-3275,PAYLOAD,2022-04-17 14:00:01,15.08819215,0.0002064,53.2121,143.2053,39.3356,174.4513,0.0023527,0.00037333,0.0,0 STARLINK-3275,1 50188U 21125AJ  22107.58334491  .00037333  00000-0  23527-2 0  9992,2 50188  53.2121 143.2053 0002064  39.3356 174.4513 15.08819215  3634,6917.944,95.439,541.237,538.381,0.0
50188.0,STARLINK-3275,PAYLOAD,2022-04-17 22:00:00,15.08824131,0.0001897,53.212,141.7069,43.7271,181.6592,0.0023911,0.00037955,0.0,0 STARLINK-3275,1 50188U 21125AJ  22107.91667824  .00037955  00000-0  23911-2 0  9995,2 50188  53.2120 141.7069 0001897  43.7271 181.6592 15.08824131  3620,6917.929,95.439,541.106,538.482,0.0
50188.0,STARLINK-3275,PAYLOAD,2022-04-18 08:00:01,15.08854178,0.000207,53.212,139.8375,42.7052,287.1721,-0.00098774,-0.0001598,0.0,0 STARLINK-3275,1 50188U 21125AJ  22108.33334491 -.00015980  00000-0 -98774-3 0  9999,2 50188  53.2120 139.8375 0002070  42.7052 287.1721 15.08854178 19063,6917.837,95.437,541.134,538.27,0.0
50188.0,STARLINK-3275,PAYLOAD,2022-04-18 14:00:01,15.08845744,0.0002105,53.2118,138.7155,39.5771,209.0036,0.00050621,7.779e-05,0.0,0 STARLINK-3275,1 50188U 21125AJ  22108.58334491  .00007779  00000-0  50621-3 0  9990,2 50188  53.2118 138.7155 0002105  39.5771 209.0036 15.08845744  3621,6917.863,95.437,541.184,538.2719999999998,0.0
50188.0,STARLINK-3275,PAYLOAD,2022-04-18 22:00:00,15.08816416,0.0001917,53.212,137.2169,42.3977,217.8026,0.0017029,0.000269,0.0,0 STARLINK-3275,1 50188U 21125AJ  22108.91667824  .00026900  00000-0  17029-2 0  9997,2 50188  53.2120 137.2169 0001917  42.3977 217.8026 15.08816416  3599,6917.9519999999975,95.439,541.144,538.491,0.0
50188.0,STARLINK-3275,PAYLOAD,2022-04-19 14:00:01,15.08831642,0.0002149,53.212,134.2256,38.3766,244.9918,0.0013513,0.00021279,0.0,0 STARLINK-3275,1 50188U 21125AJ  22109.58334491  .00021279  00000-0  13513-2 0  9990,2 50188  53.2120 134.2256 0002149  38.3766 244.9918 15.08831642 19251,6917.906,95.438,541.258,538.284,0.0
50188.0,STARLINK-3275,PAYLOAD,2022-04-20 14:00:01,15.08862561,0.0002207,53.2127,129.7359,38.2107,279.9536,-0.0019728,-0.00031569,0.0,0 STARLINK-3275,1 50188U 21125AJ  22110.58334491 -.00031569  00000-0 -19728-2 0  9991,2 50188  53.2127 129.7359 0002207  38.2107 279.9536 15.08862561 19409,6917.811,95.436,541.203,538.15,0.0
50188.0,STARLINK-3275,PAYLOAD,2022-04-20 22:00:00,15.08805677,0.0002003,53.2132,128.2376,42.0534,287.7361,0.0031785,0.00050614,0.0,0 STARLINK-3275,1 50188U 21125AJ  22110.91667824  .00050614  00000-0  31785-2 0  9994,2 50188  53.2132 128.2376 0002003  42.0534 287.7361 15.08805677  3602,6917.985,95.44,541.236,538.465,0.0
50188.0,STARLINK-3275,PAYLOAD,2022-04-21 14:00:01,15.0884372,0.0002232,53.2134,125.2463,38.3354,314.6179,0.0001975,2.857e-05,0.0,0 STARLINK-3275,1 50188U 21125AJ  22111.58334491  .00002857  00000-0  19750-3 0  9994,2 50188  53.2134 125.2463 0002232  38.3354 314.6179 15.08843720  3585,6917.869000000002,95.437,541.278,538.19,0.0
50188.0,STARLINK-3275,PAYLOAD,2022-04-21 22:00:00,15.08826281,0.0002023,53.2138,123.7483,43.2004,321.3615,0.0026215,0.00041665,0.0,0 STARLINK-3275,1 50188U 21125AJ  22111.91667824  .00041665  00000-0  26215-2 0  9993,2 50188  53.2138 123.7483 0002023  43.2004 321.3615 15.08826281  3605,6917.922,95.438,541.187,538.388,0.0
50188.0,STARLINK-3275,PAYLOAD,2022-04-22 14:00:01,15.08836347,0.0002188,53.2138,120.7569,37.4824,350.2638,-0.00036934,-6.161e-05,0.0,0 STARLINK-3275,1 50188U 21125AJ  22112.58334491 -.00006161  00000-0 -36934-3 0  9992,2 50188  53.2138 120.7569 0002188  37.4824 350.2638 15.08836347  3626,6917.892,95.438,541.27,538.243,0.0
